NORAD_CAT_ID,OBJECT_NAME,OBJECT_TYPE,EPOCH,MEAN_MOTION,ECCENTRICITY,INCLINATION,RA_OF_ASC_NODE,ARG_OF_PERICENTER,MEAN_ANOMALY,BSTAR,MEAN_MOTION_DOT,MEAN_MOTION_DDOT,TLE_LINE0,TLE_LINE1,TLE_LINE2,SEMIMAJOR_AXIS,PERIOD,APOGEE,PERIGEE,DECAYED
53560.0,STARLINK-4564,PAYLOAD,2022-09-20 14:00:01,15.73216423,0.0003398999999999,53.2171,357.3803,18.0204,285.2413,-0.00010758,-0.00015709,0.0,0 STARLINK-4564,1 53560U 22101AK  22263.58334491 -.00015709  00000-0 -10758-3 0  9995,2 53560  53.2171 357.3803 0003399  18.0204 285.2413 15.73216423  1301,6727.848000000001,91.532,352.0,347.427,0.0
53560.0,STARLINK-4564,PAYLOAD,2022-09-20 22:00:01,15.73182524,0.0003283,53.2168,355.73,15.3558,16.9069,-1.0474000000000003e-05,-2.092e-05,0.0,0 STARLINK-4564,1 53560U 22101AK  22263.91668981 -.00002092  00000-0 -10474-4 0  9993,2 53560  53.2168 355.7300 0003283  15.3558  16.9069 15.73182524  5073,6727.945,91.534,352.019,347.601,0.0
53560.0,STARLINK-4564,PAYLOAD,2022-09-21 22:00:00,15.73250907,0.0003368,53.217,350.7814,11.2203,287.7199,-0.00038102,-0.0005388999999999,0.0,0 STARLINK-4564,1 53560U 22101AK  22264.91667824 -.00053890  00000-0 -38102-3 0  9998,2 53560  53.2170 350.7814 0003368  11.2203 287.7199 15.73250907  1302,6727.75,91.53,351.881,347.349,0.0
53560.0,STARLINK-4564,PAYLOAD,2022-09-22 14:00:01,15.73137362,0.000367,53.2174,347.4839,15.3385,101.4934,0.000407,0.00056747,0.0,0 STARLINK-4564,1 53560U 22101AK  22265.58334491  .00056747  00000-0  40700-3 0  9992,2 53560  53.2174 347.4839 0003670  15.3385 101.4934 15.73137362  1306,6728.074000000001,91.537,352.408,347.47,0.0
53560.0,STARLINK-4564,PAYLOAD,2022-09-22 22:00:00,15.73194425,0.0003594,53.2171,345.8334,15.2212,190.4837,5.8606e-05,7.609e-05,0.0,0 STARLINK-4564,1 53560U 22101AK  22265.91667824  .00007609  00000-0  58606-4 0  9996,2 53560  53.2171 345.8334 0003594  15.2212 190.4837 15.73194425  1301,6727.911,91.534,352.194,347.358,0.0
53560.0,STARLINK-4564,PAYLOAD,2022-09-23 14:00:01,15.73205181,0.0003502,53.2175,342.5289,14.8162,8.7618,-1.159e-05,-2.251e-05,0.0,0 STARLINK-4564,1 53560U 22101AK  22266.58334491 -.00002251  00000-0 -11590-4 0  9992,2 53560  53.2175 342.5289 0003502  14.8162   8.7618 15.73205181  1306,6727.88,91.533,352.102,347.389,0.0
53560.0,STARLINK-4564,PAYLOAD,2022-09-23 22:00:00,15.73233522,0.0003681,53.2171,340.8817,14.3562,98.1199,-0.00012254,-0.00017817,0.0,0 STARLINK-4564,1 53560U 22101AK  22266.91667824 -.00017817  00000-0 -12254-3 0  9999,2 53560  53.2171 340.8817 0003681  14.3562  98.1199 15.73233522  1304,6727.8,91.531,352.141,347.18800000000016,0.0
53560.0,STARLINK-4564,PAYLOAD,2022-09-24 06:00:00,15.73233274,0.000357,53.2174,339.235,13.6035,187.888,0.00020318,0.00028036,0.0,0 STARLINK-4564,1 53560U 22101AK  22267.25001157  .00028036  00000-0  20318-3 0  9991,2 53560  53.2174 339.2350 0003570  13.6035 187.8880 15.73233274  5609,6727.8,91.531,352.06699999999995,347.26300000000015,0.0
53560.0,STARLINK-4564,PAYLOAD,2022-09-24 14:00:01,15.73264948,0.0003868999999999,53.2173,337.5875,10.5618,279.9716,-0.00013622,-0.00019759,0.0,0 STARLINK-4564,1 53560U 22101AK  22267.58335648 -.00019759  00000-0 -13622-3 0  9996,2 53560  53.2173 337.5875 0003869  10.5618 279.9716 15.73264948  1301,6727.71,91.529,352.17800000000005,346.972,0.0
53560.0,STARLINK-4564,PAYLOAD,2022-09-24 22:00:00,15.73262925,0.0003674,53.217,335.9364,5.9286,13.5455,-0.00083659,-0.00116786,0.0,0 STARLINK-4564,1 53560U 22101AK  22267.91667824 -.00116786  00000-0 -83659-3 0  9992,2 53560  53.2170 335.9364 0003674   5.9286  13.5455 15.73262925  1301,6727.715999999999,91.53,352.05300000000005,347.1090000000001,0.0
53560.0,STARLINK-4564,PAYLOAD,2022-09-25 14:00:01,15.73191826,0.0003956,53.2167,332.6381,3.836,193.4847,6.7932e-05,8.92e-05,0.0,0 STARLINK-4564,1 53560U 22101AK  22268.58334491  .00008920  00000-0  67932-4 0  9992,2 53560  53.2167 332.6381 0003956   3.8360 193.4847 15.73191826  5817,6727.918000000002,91.534,352.445,347.122,0.0
53560.0,STARLINK-4564,PAYLOAD,2022-09-25 22:00:01,15.73195828,0.0003813999999999,53.2168,330.9871,3.1514,283.1633,-0.00050048,-0.00070299,0.0,0 STARLINK-4564,1 53560U 22101AK  22268.91668981 -.00070299  00000-0 -50048-3 0  9992,2 53560  53.2168 330.9871 0003814   3.1514 283.1633 15.73195828  1306,6727.906999999997,91.533,352.338,347.206,0.0
53560.0,STARLINK-4564,PAYLOAD,2022-09-26 10:00:00,15.73159452,0.0004051,53.2164,328.5151,7.5394,232.0351,0.00018298,0.00025099,0.0,0 STARLINK-4564,1 53560U 22101AK  22269.41667824  .00025099  00000-0  18298-3 0  9990,2 53560  53.2164 328.5151 0004051   7.5394 232.0351 15.73159452  5941,6728.011,91.536,352.601,347.15,0.0
53560.0,STARLINK-4564,PAYLOAD,2022-09-26 14:00:01,15.73143884,0.0004156,53.2165,327.691,7.1039,96.9191,0.00066092,0.00092976,0.0,0 STARLINK-4564,1 53560U 22101AK  22269.58334491  .00092976  00000-0  66092-3 0  9992,2 53560  53.2165 327.6910 0004156   7.1039  96.9191 15.73143884  1300,6728.055,91.536,352.716,347.124,0.0
53560.0,STARLINK-4564,PAYLOAD,2022-09-26 22:00:00,15.73232416,0.0003996,53.2163,326.0397,6.6477,186.2758,-0.00038619,-0.00054575,0.0,0 STARLINK-4564,1 53560U 22101AK  22269.91667824 -.00054575  00000-0 -38619-3 0  9997,2 53560  53.2163 326.0397 0003996   6.6477 186.2758 15.73232416  1303,6727.803000000001,91.531,352.356,346.97900000000016,0.0
53560.0,STARLINK-4564,PAYLOAD,2022-09-27 14:00:01,15.73181101,0.0004276,53.2156,322.7426,6.3543,4.4449,0.00070784,0.00099865,0.0,0 STARLINK-4564,1 53560U 22101AK  22270.58334491  .00099865  00000-0  70784-3 0  9991,2 53560  53.2156 322.7426 0004276   6.3543   4.4449 15.73181101  1306,6727.949000000001,91.534,352.691,346.93699999999984,0.0
53560.0,STARLINK-4564,PAYLOAD,2022-09-27 22:00:01,15.73286423,0.0004059999999999,53.2157,321.0909,4.9897,94.855,-0.00021055,-0.00030193,0.0,0 STARLINK-4564,1 53560U 22101AK  22270.91668981 -.00030193  00000-0 -21055-3 0  9990,2 53560  53.2157 321.0909 0004060   4.9897  94.8550 15.73286423  1301,6727.649,91.528,352.245,346.782,0.0
53560.0,STARLINK-4564,PAYLOAD,2022-09-28 06:00:00,15.73200512,0.0003936,53.2159,319.4418,0.187,188.3918,-8.8459e-05,-0.00013026,0.0,0 STARLINK-4564,1 53560U 22101AK  22271.25001157 -.00013026  00000-0 -88459-4 0  9992,2 53560  53.2159 319.4418 0003936   0.1870 188.3918 15.73200512  6238,6727.894,91.533,352.407,347.111,0.0
53560.0,STARLINK-4564,PAYLOAD,2022-09-28 14:00:01,15.73144458,0.00043,53.2158,317.7939,359.0527,278.4612,0.0005507999999999,0.0007724,0.0,0 STARLINK-4564,1 53560U 22101AK  22271.58334491  .00077240  00000-0  55080-3 0  9997,2 53560  53.2158 317.7939 0004300 359.0527 278.4612 15.73144458  1308,6728.054,91.536,352.81199999999984,347.025,0.0
53560.0,STARLINK-4564,PAYLOAD,2022-09-28 22:00:00,15.73171519,0.0004088999999999,53.2157,316.1423,359.619,6.7836,0.00051238,0.00071842,0.0,0 STARLINK-4564,1 53560U 22101AK  22271.91667824  .00071842  00000-0  51238-3 0  9996,2 53560  53.2157 316.1423 0004089 359.6190   6.7836 15.73171519  1302,6727.976,91.535,352.592,347.09,0.0
53560.0,STARLINK-4564,PAYLOAD,2022-09-29 06:00:00,15.73245714,0.0004168,53.2154,314.4934,3.0404,92.2789,-0.00057029,-0.00080105,0.0,0 STARLINK-4564,1 53560U 22101AK  22272.25001157 -.00080105  00000-0 -57029-3 0  9993,2 53560  53.2154 314.4934 0004168   3.0404  92.2789 15.73245714  6393,6727.765,91.531,352.434,346.826,0.0
53560.0,STARLINK-4564,PAYLOAD,2022-09-29 14:00:01,15.73169396,0.0004417,53.215,312.8452,4.9862,179.2891,0.00071187,0.00100396,0.0,0 STARLINK-4564,1 53560U 22101AK  22272.58334491  .00100396  00000-0  71187-3 0  9993,2 53560  53.2150 312.8452 0004417   4.9862 179.2891 15.73169396  1308,6727.982,91.535,352.819,346.876,0.0
53560.0,STARLINK-4564,PAYLOAD,2022-09-29 22:00:00,15.73238889,0.0004181,53.2152,311.1934,5.1138,268.1052,0.00019868,0.00027409,0.0,0 STARLINK-4564,1 53560U 22101AK  22272.91667824  .00027409  00000-0  19868-3 0  9990,2 53560  53.2152 311.1934 0004181   5.1138 268.1052 15.73238889  1305,6727.784000000002,91.531,352.462,346.836,0.0
53560.0,STARLINK-4564,PAYLOAD,2022-09-30 06:00:02,15.73248066,0.0004231,53.2154,309.5442,5.5135,356.7606,2.9129e-05,3.475e-05,0.0,0 STARLINK-4564,1 53560U 22101AK  22273.25002315  .00003475  00000-0  29129-4 0  9995,2 53560  53.2154 309.5442 0004231   5.5135 356.7606 15.73248066  6547,6727.7580000000025,91.53,352.47,346.777,0.0
53560.0,STARLINK-4564,PAYLOAD,2022-09-30 14:00:01,15.73266669,0.0004423,53.2153,307.8958,3.6933,87.5076,-0.00010658,-0.00015608,0.0,0 STARLINK-4564,1 53560U 22101AK  22273.58334491 -.00015608  00000-0 -10658-3 0  9993,2 53560  53.2153 307.8958 0004423   3.6933  87.5076 15.73266669  1305,6727.705,91.529,352.546,346.594,0.0
53560.0,STARLINK-4564,PAYLOAD,2022-09-30 22:00:00,15.73234395,0.0004106,53.2153,306.2441,2.3714,177.8502,7.0325e-05,9.274e-05,0.0,0 STARLINK-4564,1 53560U 22101AK  22273.91667824  .00009274  00000-0  70325-4 0  9997,2 53560  53.2153 306.2441 0004106   2.3714 177.8502 15.73234395  1304,6727.797,91.531,352.425,346.9,0.0
53560.0,STARLINK-4564,PAYLOAD,2022-10-01 14:00:01,15.73236897,0.0004397999999999,53.2146,302.947,4.5221,353.6105,-0.00010792,-0.00015776,0.0,0 STARLINK-4564,1 53560U 22101AK  22274.58334491 -.00015776  00000-0 -10792-3 0  9999,2 53560  53.2146 302.9470 0004398   4.5221 353.6105 15.73236897  1303,6727.79,91.531,352.61400000000015,346.696,0.0
53560.0,STARLINK-4564,PAYLOAD,2022-10-01 22:00:00,15.73200053,0.0004093,53.2148,301.2952,3.483,83.6317,-0.00034788,-0.00049188,0.0,0 STARLINK-4564,1 53560U 22101AK  22274.91667824 -.00049188  00000-0 -34788-3 0  9990,2 53560  53.2148 301.2952 0004093   3.4830  83.6317 15.73200053  1308,6727.895,91.533,352.514,347.006,0.0
53560.0,STARLINK-4564,PAYLOAD,2022-10-02 06:00:00,15.73147611,0.0004261999999999,53.2151,299.6467,6.5773,169.4445,5.003899999999999e-05,6.391e-05,0.0,0 STARLINK-4564,1 53560U 22101AK  22275.25001157  .00006391  00000-0  50039-4 0  9994,2 53560  53.2151 299.6467 0004262   6.5773 169.4445 15.73147611  6862,6728.045,91.536,352.777,347.042,0.0
